{
  "type": "FeatureCollection",
  "features": [
    {
      "type": "Feature",
      "properties": {
        "norad_id": 46805,
        "name": "COSMOS 2547 (705K)",
        "group": "glo-ops",
        "lat": -17.255692198736718,
        "lon": 26.952923849163795,
        "alt_km": 19119.01850879518,
        "timestamp": "2025-12-19T22:41:52.652731+00:00",
        "meta_object_name": "COSMOS 2547 (705K)",
        "meta_object_id": "2020-075A",
        "meta_epoch": "2025-12-19T05:12:13.762080",
        "meta_mean_motion": 2.13100175,
        "meta_eccentricity": 0.0006125,
        "meta_inclination": 64.5965,
        "meta_ra_of_asc_node": 198.4802,
        "meta_arg_of_pericenter": 227.9307,
        "meta_mean_anomaly": 132.0972,
        "meta_ephemeris_type": 0,
        "meta_classification_type": "U",
        "meta_norad_cat_id": 46805,
        "meta_element_set_no": 999,
        "meta_rev_at_epoch": 4007,
        "meta_bstar": 0,
        "meta_mean_motion_dot": 1.06e-06,
        "meta_mean_motion_ddot": 0,
        "tle_line1": "1 46805U 20075A   25353.21682595  .00000106  00000+0  00000+0 0  9998",
        "tle_line2": "2 46805  64.5965 198.4802 0006125 227.9307 132.0972  2.13100175 40071"
      },
      "geometry": {
        "type": "Point",
        "coordinates": [
          26.952923849163795,
          -17.255692198736718
        ]
      }
    },
    {
      "type": "Feature",
      "properties": {
        "norad_id": 52984,
        "name": "COSMOS 2557 (706K)",
        "group": "glo-ops",
        "lat": 59.269417838391185,
        "lon": 14.480425185706682,
        "alt_km": 19154.54638820955,
        "timestamp": "2025-12-19T22:41:52.652742+00:00",
        "meta_object_name": "COSMOS 2557 (706K)",
        "meta_object_id": "2022-075A",
        "meta_epoch": "2025-12-18T21:54:24.162624",
        "meta_mean_motion": 2.1310197,
        "meta_eccentricity": 0.00135327,
        "meta_inclination": 64.4064,
        "meta_ra_of_asc_node": 320.8341,
        "meta_arg_of_pericenter": 277.9279,
        "meta_mean_anomaly": 81.9104,
        "meta_ephemeris_type": 0,
        "meta_classification_type": "U",
        "meta_norad_cat_id": 52984,
        "meta_element_set_no": 999,
        "meta_rev_at_epoch": 2687,
        "meta_bstar": 0,
        "meta_mean_motion_dot": -6.2e-07,
        "meta_mean_motion_ddot": 0,
        "tle_line1": "1 52984U 22075A   25352.91277966 -.00000062  00000+0  00000+0 0  9995",
        "tle_line2": "2 52984  64.4064 320.8341 0013532 277.9279  81.9104  2.13101970 26872"
      },
      "geometry": {
        "type": "Point",
        "coordinates": [
          14.480425185706682,
          59.269417838391185
        ]
      }
    },
    {
      "type": "Feature",
      "properties": {
        "norad_id": 54031,
        "name": "COSMOS 2559 (707K)",
        "group": "glo-ops",
        "lat": -27.87582215731277,
        "lon": 155.5687344684555,
        "alt_km": 19105.887896379223,
        "timestamp": "2025-12-19T22:41:52.652754+00:00",
        "meta_object_name": "COSMOS 2559 (707K)",
        "meta_object_id": "2022-130A",
        "meta_epoch": "2025-12-19T04:49:46.570944",
        "meta_mean_motion": 2.13101385,
        "meta_eccentricity": 0.0011608,
        "meta_inclination": 64.3786,
        "meta_ra_of_asc_node": 320.9138,
        "meta_arg_of_pericenter": 191.996,
        "meta_mean_anomaly": 167.9688,
        "meta_ephemeris_type": 0,
        "meta_classification_type": "U",
        "meta_norad_cat_id": 54031,
        "meta_element_set_no": 999,
        "meta_rev_at_epoch": 2485,
        "meta_bstar": 0,
        "meta_mean_motion_dot": -6.1e-07,
        "meta_mean_motion_ddot": 0,
        "tle_line1": "1 54031U 22130A   25353.20123346 -.00000061  00000+0  00000+0 0  9996",
        "tle_line2": "2 54031  64.3786 320.9138 0011608 191.9960 167.9688  2.13101385 24854"
      },
      "geometry": {
        "type": "Point",
        "coordinates": [
          155.5687344684555,
          -27.87582215731277
        ]
      }
    },
    {
      "type": "Feature",
      "properties": {
        "norad_id": 54377,
        "name": "COSMOS 2564 (761)",
        "group": "glo-ops",
        "lat": -26.226172587778976,
        "lon": -174.79322455272782,
        "alt_km": 19146.616439762838,
        "timestamp": "2025-12-19T22:41:52.652765+00:00",
        "meta_object_name": "COSMOS 2564 (761)",
        "meta_object_id": "2022-161A",
        "meta_epoch": "2025-12-19T01:05:24.764064",
        "meta_mean_motion": 2.13102078,
        "meta_eccentricity": 0.0008559,
        "meta_inclination": 64.7386,
        "meta_ra_of_asc_node": 198.6894,
        "meta_arg_of_pericenter": 204.0173,
        "meta_mean_anomaly": 156.0236,
        "meta_ephemeris_type": 0,
        "meta_classification_type": "U",
        "meta_norad_cat_id": 54377,
        "meta_element_set_no": 999,
        "meta_rev_at_epoch": 2379,
        "meta_bstar": 0,
        "meta_mean_motion_dot": 1.07e-06,
        "meta_mean_motion_ddot": 0,
        "tle_line1": "1 54377U 22161A   25353.04542551  .00000107  00000+0  00000+0 0  9998",
        "tle_line2": "2 54377  64.7386 198.6894 0008559 204.0173 156.0236  2.13102078 23799"
      },
      "geometry": {
        "type": "Point",
        "coordinates": [
          -174.79322455272782,
          -26.226172587778976
        ]
      }
    },
    {
      "type": "Feature",
      "properties": {
        "norad_id": 57517,
        "name": "COSMOS 2569 (703K)",
        "group": "glo-ops",
        "lat": -35.337975597248494,
        "lon": 59.57849850845592,
        "alt_km": 19111.422702024047,
        "timestamp": "2025-12-19T22:41:52.652777+00:00",
        "meta_object_name": "COSMOS 2569 (703K)",
        "meta_object_id": "2023-114A",
        "meta_epoch": "2025-12-19T12:40:20.363808",
        "meta_mean_motion": 2.13104046,
        "meta_eccentricity": 0.0010771,
        "meta_inclination": 65.1977,
        "meta_ra_of_asc_node": 78.6841,
        "meta_arg_of_pericenter": 287.0303,
        "meta_mean_anomaly": 72.8809,
        "meta_ephemeris_type": 0,
        "meta_classification_type": "U",
        "meta_norad_cat_id": 57517,
        "meta_element_set_no": 999,
        "meta_rev_at_epoch": 1843,
        "meta_bstar": 0,
        "meta_mean_motion_dot": -2.7e-07,
        "meta_mean_motion_ddot": 0,
        "tle_line1": "1 57517U 23114A   25353.52801347 -.00000027  00000+0  00000+0 0  9992",
        "tle_line2": "2 57517  65.1977  78.6841 0010771 287.0303  72.8809  2.13104046 18436"
      },
      "geometry": {
        "type": "Point",
        "coordinates": [
          59.57849850845592,
          -35.337975597248494
        ]
      }
    },
    {
      "type": "Feature",
      "properties": {
        "norad_id": 63130,
        "name": "COSMOS 2584 (704K)",
        "group": "glo-ops",
        "lat": 41.842682147969576,
        "lon": 103.58680314272624,
        "alt_km": 19144.437837343874,
        "timestamp": "2025-12-19T22:41:52.652788+00:00",
        "meta_object_name": "COSMOS 2584 (704K)",
        "meta_object_id": "2025-042A",
        "meta_epoch": "2025-12-18T11:25:35.911776",
        "meta_mean_motion": 2.13103072,
        "meta_eccentricity": 0.00077091,
        "meta_inclination": 64.979,
        "meta_ra_of_asc_node": 78.9506,
        "meta_arg_of_pericenter": 218.5301,
        "meta_mean_anomaly": 141.4378,
        "meta_ephemeris_type": 0,
        "meta_classification_type": "U",
        "meta_norad_cat_id": 63130,
        "meta_element_set_no": 999,
        "meta_rev_at_epoch": 619,
        "meta_bstar": 0,
        "meta_mean_motion_dot": -3.8e-07,
        "meta_mean_motion_ddot": 0,
        "tle_line1": "1 63130U 25042A   25352.47611009 -.00000038  00000+0  00000+0 0  9991",
        "tle_line2": "2 63130  64.9790  78.9506 0007709 218.5301 141.4378  2.13103072  6191"
      },
      "geometry": {
        "type": "Point",
        "coordinates": [
          103.58680314272624,
          41.842682147969576
        ]
      }
    },
    {
      "type": "Feature",
      "properties": {
        "norad_id": 65590,
        "name": "COSMOS 2596 (708K)",
        "group": "glo-ops",
        "lat": 12.811588370648924,
        "lon": 135.04628885074385,
        "alt_km": 19156.79338326618,
        "timestamp": "2025-12-19T22:41:52.652800+00:00",
        "meta_object_name": "COSMOS 2596 (708K)",
        "meta_object_id": "2025-206B",
        "meta_epoch": "2025-12-19T12:37:39.326304",
        "meta_mean_motion": 2.13100498,
        "meta_eccentricity": 0.0014057,
        "meta_inclination": 64.7407,
        "meta_ra_of_asc_node": 321.239,
        "meta_arg_of_pericenter": 306.9222,
        "meta_mean_anomaly": 257.0198,
        "meta_ephemeris_type": 0,
        "meta_classification_type": "U",
        "meta_norad_cat_id": 65590,
        "meta_element_set_no": 999,
        "meta_rev_at_epoch": 208,
        "meta_bstar": 0,
        "meta_mean_motion_dot": -5.9e-07,
        "meta_mean_motion_ddot": 0,
        "tle_line1": "1 65590U 25206B   25353.52614961 -.00000059  00000+0  00000+0 0  9995",
        "tle_line2": "2 65590  64.7407 321.2390 0014057 306.9222 257.0198  2.13100498  2086"
      },
      "geometry": {
        "type": "Point",
        "coordinates": [
          135.04628885074385,
          12.811588370648924
        ]
      }
    }
  ]
}